{"type": "FeatureCollection", "features": [ {"type": "Feature", "properties": {"norad_id": 39574, "name": "GPM-CORE", "group": "resource", "lat": 15.07090423642961, "lon": 23.785561030475694, "alt_km": 431.8213296825961, "timestamp": "2025-12-13T05:42:57.154078+00:00", "meta": {"OBJECT_NAME": "GPM-CORE", "OBJECT_ID": "2014-009C", "EPOCH": "2025-12-12T04:08:45.508416", "MEAN_MOTION": 15.44450966, "ECCENTRICITY": 0.00098424, "INCLINATION": 64.9735, "RA_OF_ASC_NODE": 214.5785, "ARG_OF_PERICENTER": 245.0797, "MEAN_ANOMALY": 114.9321, "EPHEMERIS_TYPE": 0, "CLASSIFICATION_TYPE": "U", "NORAD_CAT_ID": 39574, "ELEMENT_SET_NO": 999, "REV_AT_EPOCH": 66892, "BSTAR": 0.00025125398, "MEAN_MOTION_DOT": 0.00011477, "MEAN_MOTION_DDOT": 0}, "tle": {"line1": "1 39574U 14009C   25346.17274894  .00011477  00000+0  25125-3 0  9991", "line2": "2 39574  64.9735 214.5785 0009842 245.0797 114.9321 15.44450966668929"}}, "geometry": {"type": "Point", "coordinates": [23.785561030475694, 15.07090423642961]}}, {"type": "Feature", "properties": {"norad_id": 39634, "name": "SENTINEL-1A", "group": "resource", "lat": -40.27991024356605, "lon": 165.4697113151382, "alt_km": 702.9418954297698, "timestamp": "2025-12-13T05:42:57.154088+00:00", "meta": {"OBJECT_NAME": "SENTINEL-1A", "OBJECT_ID": "2014-016A", "EPOCH": "2025-12-12T07:18:48.342816", "MEAN_MOTION": 14.59200248, "ECCENTRICITY": 0.00012343, "INCLINATION": 98.1805, "RA_OF_ASC_NODE": 351.5522, "ARG_OF_PERICENTER": 84.2396, "MEAN_ANOMALY": 275.8945, "EPHEMERIS_TYPE": 0, "CLASSIFICATION_TYPE": "U", "NORAD_CAT_ID": 39634, "ELEMENT_SET_NO": 999, "REV_AT_EPOCH": 62276, "BSTAR": 7.2054053e-05, "MEAN_MOTION_DOT": 2.94e-06, "MEAN_MOTION_DDOT": 0}, "tle": {"line1": "1 39634U 14016A   25346.30472619  .00000294  00000+0  72054-4 0  9995", "line2": "2 39634  98.1805 351.5522 0001234  84.2396 275.8945 14.59200248622761"}}, "geometry": {"type": "Point", "coordinates": [165.4697113151382, -40.27991024356605]}}, {"type": "Feature", "properties": {"norad_id": 39731, "name": "KAZEOSAT 1", "group": "resource", "lat": 15.216554973221319, "lon": -118.57874842048146, "alt_km": 752.232989794752, "timestamp": "2025-12-13T05:42:57.154099+00:00", "meta": {"OBJECT_NAME": "KAZEOSAT 1", "OBJECT_ID": "2014-024A", "EPOCH": "2025-12-12T07:18:26.438688", "MEAN_MOTION": 14.42062824, "ECCENTRICITY": 0.00011082, "INCLINATION": 98.3429, "RA_OF_ASC_NODE": 58.2211, "ARG_OF_PERICENTER": 94.593, "MEAN_ANOMALY": 265.5387, "EPHEMERIS_TYPE": 0, "CLASSIFICATION_TYPE": "U", "NORAD_CAT_ID": 39731, "ELEMENT_SET_NO": 999, "REV_AT_EPOCH": 61162, "BSTAR": 0.00017673183, "MEAN_MOTION_DOT": 5.38e-06, "MEAN_MOTION_DDOT": 0}, "tle": {"line1": "1 39731U 14024A   25346.30447267  .00000538  00000+0  17673-3 0  9999", "line2": "2 39731  98.3429  58.2211 0001108  94.5930 265.5387 14.42062824611624"}}, "geometry": {"type": "Point", "coordinates": [-118.57874842048146, 15.216554973221319]}}, {"type": "Feature", "properties": {"norad_id": 39766, "name": "ALOS-2", "group": "resource", "lat": 63.195217259039936, "lon": -81.92622420425924, "alt_km": 623.8809242773395, "timestamp": "2025-12-13T05:42:57.154110+00:00", "meta": {"OBJECT_NAME": "ALOS-2", "OBJECT_ID": "2014-029A", "EPOCH": "2025-12-12T06:28:14.015424", "MEAN_MOTION": 14.79472596, "ECCENTRICITY": 0.00013835, "INCLINATION": 97.9217, "RA_OF_ASC_NODE": 81.1219, "ARG_OF_PERICENTER": 100.587, "MEAN_ANOMALY": 259.5497, "EPHEMERIS_TYPE": 0, "CLASSIFICATION_TYPE": "U", "NORAD_CAT_ID": 39766, "ELEMENT_SET_NO": 999, "REV_AT_EPOCH": 62394, "BSTAR": 0.00066761856, "MEAN_MOTION_DOT": 4.938e-05, "MEAN_MOTION_DDOT": 0}, "tle": {"line1": "1 39766U 14029A   25346.26960666  .00004938  00000+0  66762-3 0  9991", "line2": "2 39766  97.9217  81.1219 0001383 100.5870 259.5497 14.79472596623945"}}, "geometry": {"type": "Point", "coordinates": [-81.92622420425924, 63.195217259039936]}}, {"type": "Feature", "properties": {"norad_id": 40010, "name": "KAZEOSAT 2", "group": "resource", "lat": 35.48841618377996, "lon": -173.9001213666595, "alt_km": 615.8988252515765, "timestamp": "2025-12-13T05:42:57.154121+00:00", "meta": {"OBJECT_NAME": "KAZEOSAT 2", "OBJECT_ID": "2014-033A", "EPOCH": "2025-12-12T06:55:01.476192", "MEAN_MOTION": 14.8516773, "ECCENTRICITY": 0.00075883, "INCLINATION": 97.5507, "RA_OF_ASC_NODE": 190.626, "ARG_OF_PERICENTER": 208.2241, "MEAN_ANOMALY": 151.8564, "EPHEMERIS_TYPE": 0, "CLASSIFICATION_TYPE": "U", "NORAD_CAT_ID": 40010, "ELEMENT_SET_NO": 999, "REV_AT_EPOCH": 62121, "BSTAR": 0.00015364873, "MEAN_MOTION_DOT": 1.266e-05, "MEAN_MOTION_DDOT": 0}, "tle": {"line1": "1 40010U 14033A   25346.28821153  .00001266  00000+0  15365-3 0  9993", "line2": "2 40010  97.5507 190.6260 0007588 208.2241 151.8564 14.85167730621215"}}, "geometry": {"type": "Point", "coordinates": [-173.9001213666595, 35.48841618377996]}}, {"type": "Feature", "properties": {"norad_id": 40011, "name": "HODOYOSHI-4", "group": "resource", "lat": 51.69721239087366, "lon": 5.753134606300269, "alt_km": 595.8114211863049, "timestamp": "2025-12-13T05:42:57.154132+00:00", "meta": {"OBJECT_NAME": "HODOYOSHI-4", "OBJECT_ID": "2014-033B", "EPOCH": "2025-12-12T08:09:16.515936", "MEAN_MOTION": 14.87478545, "ECCENTRICITY": 0.00232375, "INCLINATION": 97.5416, "RA_OF_ASC_NODE": 175.2433, "ARG_OF_PERICENTER": 201.934, "MEAN_ANOMALY": 158.0885, "EPHEMERIS_TYPE": 0, "CLASSIFICATION_TYPE": "U", "NORAD_CAT_ID": 40011, "ELEMENT_SET_NO": 999, "REV_AT_EPOCH": 62102, "BSTAR": 0.00034949765, "MEAN_MOTION_DOT": 3.13e-05, "MEAN_MOTION_DDOT": 0}, "tle": {"line1": "1 40011U 14033B   25346.33977449  .00003130  00000+0  34950-3 0  9993", "line2": "2 40011  97.5416 175.2433 0023237 201.9340 158.0885 14.87478545621020"}}, "geometry": {"type": "Point", "coordinates": [5.753134606300269, 51.69721239087366]}}, {"type": "Feature", "properties": {"norad_id": 40013, "name": "DEIMOS-2", "group": "resource", "lat": -64.07292964511198, "lon": -121.02463931378932, "alt_km": 596.4394351835881, "timestamp": "2025-12-13T05:42:57.154143+00:00", "meta": {"OBJECT_NAME": "DEIMOS-2", "OBJECT_ID": "2014-033D", "EPOCH": "2025-12-12T07:29:16.068192", "MEAN_MOTION": 14.92967475, "ECCENTRICITY": 8.326e-05, "INCLINATION": 97.606, "RA_OF_ASC_NODE": 222.1263, "ARG_OF_PERICENTER": 95.9106, "MEAN_ANOMALY": 264.2209, "EPHEMERIS_TYPE": 0, "CLASSIFICATION_TYPE": "U", "NORAD_CAT_ID": 40013, "ELEMENT_SET_NO": 999, "REV_AT_EPOCH": 60983, "BSTAR": 0.00022764838, "MEAN_MOTION_DOT": 2.31e-05, "MEAN_MOTION_DDOT": 0}, "tle": {"line1": "1 40013U 14033D   25346.31199153  .00002310  00000+0  22765-3 0  9991", "line2": "2 40013  97.6060 222.1263 0000832  95.9106 264.2209 14.92967475609834"}}, "geometry": {"type": "Point", "coordinates": [-121.02463931378932, -64.07292964511198]}}, {"type": "Feature", "properties": {"norad_id": 40015, "name": "HODOYOSHI-3", "group": "resource", "lat": 47.92042560240207, "lon": 144.52470702181668, "alt_km": 631.1641025290792, "timestamp": "2025-12-13T05:42:57.154154+00:00", "meta": {"OBJECT_NAME": "HODOYOSHI-3", "OBJECT_ID": "2014-033F", "EPOCH": "2025-12-12T05:14:12.056640", "MEAN_MOTION": 14.84804063, "ECCENTRICITY": 0.0031895, "INCLINATION": 97.6199, "RA_OF_ASC_NODE": 152.0759, "ARG_OF_PERICENTER": 249.7333, "MEAN_ANOMALY": 110.0453, "EPHEMERIS_TYPE": 0, "CLASSIFICATION_TYPE": "U", "NORAD_CAT_ID": 40015, "ELEMENT_SET_NO": 999, "REV_AT_EPOCH": 61987, "BSTAR": 0.00033291262, "MEAN_MOTION_DOT": 2.799e-05, "MEAN_MOTION_DDOT": 0}, "tle": {"line1": "1 40015U 14033F   25346.21819510  .00002799  00000+0  33291-3 0  9995", "line2": "2 40015  97.6199 152.0759 0031895 249.7333 110.0453 14.84804063619872"}}, "geometry": {"type": "Point", "coordinates": [144.52470702181668, 47.92042560240207]}}, {"type": "Feature", "properties": {"norad_id": 40053, "name": "SPOT 7", "group": "resource", "lat": 81.68049728449927, "lon": -27.281212438182532, "alt_km": 682.240275418053, "timestamp": "2025-12-13T05:42:57.154165+00:00", "meta": {"OBJECT_NAME": "SPOT 7", "OBJECT_ID": "2014-034A", "EPOCH": "2025-12-12T07:56:32.771040", "MEAN_MOTION": 14.60733279, "ECCENTRICITY": 0.00015616, "INCLINATION": 98.0902, "RA_OF_ASC_NODE": 48.4153, "ARG_OF_PERICENTER": 88.0675, "MEAN_ANOMALY": 272.0705, "EPHEMERIS_TYPE": 0, "CLASSIFICATION_TYPE": "U", "NORAD_CAT_ID": 40053, "ELEMENT_SET_NO": 999, "REV_AT_EPOCH": 60985, "BSTAR": 0.00021006964, "MEAN_MOTION_DOT": 9.79e-06, "MEAN_MOTION_DDOT": 0}, "tle": {"line1": "1 40053U 14034A   25346.33093485  .00000979  00000+0  21007-3 0  9996", "line2": "2 40053  98.0902  48.4153 0001561  88.0675 272.0705 14.60733279609857"}}, "geometry": {"type": "Point", "coordinates": [-27.281212438182532, 81.68049728449927]}}, {"type": "Feature", "properties": {"norad_id": 40072, "name": "SKYSAT-B", "group": "resource", "lat": 68.95951769674309, "lon": -91.50657124302235, "alt_km": 598.6539774622934, "timestamp": "2025-12-13T05:42:57.154175+00:00", "meta": {"OBJECT_NAME": "SKYSAT-B", "OBJECT_ID": "2014-037D", "EPOCH": "2025-12-12T06:47:41.354592", "MEAN_MOTION": 14.87325495, "ECCENTRICITY": 0.00061144, "INCLINATION": 98.3607, "RA_OF_ASC_NODE": 289.9651, "ARG_OF_PERICENTER": 151.3862, "MEAN_ANOMALY": 208.7689, "EPHEMERIS_TYPE": 0, "CLASSIFICATION_TYPE": "U", "NORAD_CAT_ID": 40072, "ELEMENT_SET_NO": 999, "REV_AT_EPOCH": 61817, "BSTAR": 0.00032590687, "MEAN_MOTION_DOT": 2.882e-05, "MEAN_MOTION_DDOT": 0}, "tle": {"line1": "1 40072U 14037D   25346.28311753  .00002882  00000+0  32591-3 0  9990", "line2": "2 40072  98.3607 289.9651 0006114 151.3862 208.7689 14.87325495618177"}}, "geometry": {"type": "Point", "coordinates": [-91.50657124302235, 68.95951769674309]}}]}